ASTROCAST-0401          
1 55110U 23001DF  26068.71172895  .00009750  00000+0  37868-3 0  9995
2 55110  97.5547 160.5206 0008142 188.4231 171.6872 15.26258462176022
STARLINK-35699          
1 66557U 25268A   26068.15870069  .00034382  00000+0  12540-2 0  9993
2 66557  43.0027 350.4930 0001755 256.2018 103.8638 15.27557802 17877
